start=new Date('2022-11-25T00:00:00.000Z').valueOf();
sats=[{"MEAN_ELEMENT_THEORY":"SGP4","TIME_SYSTEM":"UTC","MEAN_ANOMALY":"327.2205","ARG_OF_PERICENTER":"32.8946","TLE_LINE1":"1 53139U 22083H   22328.92616069  .00000478  00000-0  48180-4 0  9996","ELEMENT_SET_NO":"999","PERIAPSIS":"537.991","INCLINATION":"53.2163","SITE":"AFETR","APOAPSIS":"541.524","TLE_LINE2":"2 53139  53.2163 164.5650 0002554  32.8946 327.2205 15.08836066 20576","FILE":"3669225","OBJECT_ID":"2022-083H","LAUNCH_DATE":"2022-07-17","MEAN_MOTION":"15.08836066","PERIOD":"95.438","OBJECT_TYPE":"PAYLOAD","SEMIMAJOR_AXIS":"6917.892","CLASSIFICATION_TYPE":"U","REV_AT_EPOCH":"2057","MEAN_MOTION_DOT":"0.00000478","MEAN_MOTION_DDOT":"0.0000000000000","REF_FRAME":"TEME","ECCENTRICITY":"0.00025540","OBJECT_NAME":"STARLINK-4185","EPHEMERIS_TYPE":"0","COUNTRY_CODE":"US","NORAD_CAT_ID":"53139","DECAY_DATE":null,"GP_ID":"218700744","EPOCH":"2022-11-24T22:13:40.283616","BSTAR":"0.00004818000000","RCS_SIZE":"LARGE","CENTER_NAME":"EARTH","RA_OF_ASC_NODE":"164.5650"},{"OBJECT_TYPE":"PAYLOAD","OBJECT_ID":"2022-083J","LAUNCH_DATE":"2022-07-17","PERIOD":"95.438","MEAN_MOTION":"15.08831109","FILE":"3669335","MEAN_MOTION_DOT":"-0.00000258","SEMIMAJOR_AXIS":"6917.908","CLASSIFICATION_TYPE":"U","REV_AT_EPOCH":"1991","TLE_LINE1":"1 53140U 22083J   22328.73112913 -.00000258  00000-0  19313-5 0  9990","ELEMENT_SET_NO":"999","MEAN_ANOMALY":"324.2216","ARG_OF_PERICENTER":"35.8958","MEAN_ELEMENT_THEORY":"SGP4","TIME_SYSTEM":"UTC","TLE_LINE2":"2 53140  53.2168 165.4405 0002703  35.8958 324.2216 15.08831109 19911","INCLINATION":"53.2168","SITE":"AFETR","APOAPSIS":"541.642","PERIAPSIS":"537.903","GP_ID":"218726841","DECAY_DATE":null,"RA_OF_ASC_NODE":"165.4405","BSTAR":"0.00000193130000","RCS_SIZE":"LARGE","CENTER_NAME":"EARTH","EPOCH":"2022-11-24T17:32:49.556832","COUNTRY_CODE":"US","EPHEMERIS_TYPE":"0","OBJECT_NAME":"STARLINK-4170","ECCENTRICITY":"0.00027030","MEAN_MOTION_DDOT":"0.0000000000000","REF_FRAME":"TEME","NORAD_CAT_ID":"53140"},{"OBJECT_TYPE":"PAYLOAD","MEAN_MOTION":"15.08840270","PERIOD":"95.438","LAUNCH_DATE":"2022-07-17","OBJECT_ID":"2022-083K","FILE":"3669335","MEAN_MOTION_DOT":"0.00001751","CLASSIFICATION_TYPE":"U","REV_AT_EPOCH":"1991","SEMIMAJOR_AXIS":"6917.880","ELEMENT_SET_NO":"999","TLE_LINE1":"1 53141U 22083K   22328.71271383  .00001751  00000-0  12814-3 0  9991","ARG_OF_PERICENTER":"39.0028","MEAN_ANOMALY":"321.1172","TIME_SYSTEM":"UTC","MEAN_ELEMENT_THEORY":"SGP4","TLE_LINE2":"2 53141  53.2169 165.5055 0002892  39.0028 321.1172 15.08840270 19914","SITE":"AFETR","APOAPSIS":"541.745","INCLINATION":"53.2169","PERIAPSIS":"537.744","GP_ID":"218726665","DECAY_DATE":null,"RA_OF_ASC_NODE":"165.5055","CENTER_NAME":"EARTH","BSTAR":"0.00012814000000","RCS_SIZE":"LARGE","EPOCH":"2022-11-24T17:06:18.474912","EPHEMERIS_TYPE":"0","COUNTRY_CODE":"US","OBJECT_NAME":"STARLINK-4103","ECCENTRICITY":"0.00028920","REF_FRAME":"TEME","MEAN_MOTION_DDOT":"0.0000000000000","NORAD_CAT_ID":"53141"},{"PERIAPSIS":"538.207","TLE_LINE2":"2 53142  53.2171 165.4768 0002272  41.1441 318.9722 15.08829144 19926","INCLINATION":"53.2171","APOAPSIS":"541.350","SITE":"AFETR","MEAN_ANOMALY":"318.9722","ARG_OF_PERICENTER":"41.1441","MEAN_ELEMENT_THEORY":"SGP4","TIME_SYSTEM":"UTC","TLE_LINE1":"1 53142U 22083L   22328.72377322  .00001315  00000-0  10077-3 0  9998","ELEMENT_SET_NO":"999","SEMIMAJOR_AXIS":"6917.914","CLASSIFICATION_TYPE":"U","REV_AT_EPOCH":"1992","MEAN_MOTION_DOT":"0.00001315","FILE":"3669335","OBJECT_TYPE":"PAYLOAD","OBJECT_ID":"2022-083L","LAUNCH_DATE":"2022-07-17","MEAN_MOTION":"15.08829144","PERIOD":"95.438","NORAD_CAT_ID":"53142","ECCENTRICITY":"0.00022720","MEAN_MOTION_DDOT":"0.0000000000000","REF_FRAME":"TEME","EPHEMERIS_TYPE":"0","COUNTRY_CODE":"US","OBJECT_NAME":"STARLINK-4101","EPOCH":"2022-11-24T17:22:14.006208","RA_OF_ASC_NODE":"165.4768","RCS_SIZE":"LARGE","BSTAR":"0.00010077000000","CENTER_NAME":"EARTH","GP_ID":"218726144","DECAY_DATE":null},{"TIME_SYSTEM":"UTC","MEAN_ELEMENT_THEORY":"SGP4","ARG_OF_PERICENTER":"45.6460","MEAN_ANOMALY":"314.4729","ELEMENT_SET_NO":"999","TLE_LINE1":"1 53143U 22083M   22328.70904126  .00001922  00000-0  13885-3 0  9999","PERIAPSIS":"538.099","SITE":"AFETR","APOAPSIS":"541.421","INCLINATION":"53.2184","TLE_LINE2":"2 53143  53.2184 165.5319 0002401  45.6460 314.4729 15.08835358 19919","FILE":"3669335","PERIOD":"95.438","MEAN_MOTION":"15.08835358","OBJECT_ID":"2022-083M","LAUNCH_DATE":"2022-07-17","OBJECT_TYPE":"PAYLOAD","CLASSIFICATION_TYPE":"U","REV_AT_EPOCH":"1991","SEMIMAJOR_AXIS":"6917.895","MEAN_MOTION_DOT":"0.00001922","MEAN_MOTION_DDOT":"0.0000000000000","REF_FRAME":"TEME","ECCENTRICITY":"0.00024010","OBJECT_NAME":"STARLINK-4102","EPHEMERIS_TYPE":"0","COUNTRY_CODE":"US","NORAD_CAT_ID":"53143","DECAY_DATE":null,"GP_ID":"218726320","EPOCH":"2022-11-24T17:01:01.164864","CENTER_NAME":"EARTH","BSTAR":"0.00013885000000","RCS_SIZE":"LARGE","RA_OF_ASC_NODE":"165.5319"},{"EPHEMERIS_TYPE":"0","COUNTRY_CODE":"US","OBJECT_NAME":"STARLINK-4100","ECCENTRICITY":"0.00026650","REF_FRAME":"TEME","MEAN_MOTION_DDOT":"0.0000000000000","NORAD_CAT_ID":"53144","GP_ID":"218726496","DECAY_DATE":null,"RA_OF_ASC_NODE":"165.4929","CENTER_NAME":"EARTH","BSTAR":"-0.00019369000000","RCS_SIZE":"LARGE","EPOCH":"2022-11-24T17:16:56.082720","ELEMENT_SET_NO":"999","TLE_LINE1":"1 53144U 22083N   22328.72009355 -.00003371  00000-0 -19369-3 0  9997","ARG_OF_PERICENTER":"43.8753","MEAN_ANOMALY":"316.2450","TIME_SYSTEM":"UTC","MEAN_ELEMENT_THEORY":"SGP4","TLE_LINE2":"2 53144  53.2191 165.4929 0002665  43.8753 316.2450 15.08847424 19919","APOAPSIS":"541.566","SITE":"AFETR","INCLINATION":"53.2191","PERIAPSIS":"537.879","OBJECT_TYPE":"PAYLOAD","MEAN_MOTION":"15.08847424","PERIOD":"95.437","LAUNCH_DATE":"2022-07-17","OBJECT_ID":"2022-083N","FILE":"3669335","MEAN_MOTION_DOT":"-0.00003371","CLASSIFICATION_TYPE":"U","REV_AT_EPOCH":"1991","SEMIMAJOR_AXIS":"6917.858"},{"ECCENTRICITY":"0.00022940","MEAN_MOTION_DDOT":"0.0000000000000","REF_FRAME":"TEME","EPHEMERIS_TYPE":"0","COUNTRY_CODE":"US","OBJECT_NAME":"STARLINK-4106","NORAD_CAT_ID":"53145","GP_ID":"218727011","DECAY_DATE":null,"EPOCH":"2022-11-24T20:01:11.500896","RA_OF_ASC_NODE":"164.9609","CENTER_NAME":"EARTH","RCS_SIZE":"LARGE","BSTAR":"-0.00000436890000","ARG_OF_PERICENTER":"48.0447","MEAN_ANOMALY":"312.0740","TIME_SYSTEM":"UTC","MEAN_ELEMENT_THEORY":"SGP4","ELEMENT_SET_NO":"999","TLE_LINE1":"1 53145U 22083P   22328.83416089 -.00000358  00000-0 -43689-5 0  9992","PERIAPSIS":"538.170","TLE_LINE2":"2 53145  53.2174 164.9609 0002294  48.0447 312.0740 15.08836253 19931","APOAPSIS":"541.344","SITE":"AFETR","INCLINATION":"53.2174","FILE":"3669335","OBJECT_TYPE":"PAYLOAD","PERIOD":"95.438","MEAN_MOTION":"15.08836253","OBJECT_ID":"2022-083P","LAUNCH_DATE":"2022-07-17","CLASSIFICATION_TYPE":"U","REV_AT_EPOCH":"1993","SEMIMAJOR_AXIS":"6917.892","MEAN_MOTION_DOT":"-0.00000358"},{"GP_ID":"218725787","DECAY_DATE":null,"EPOCH":"2022-11-24T17:11:37.782528","RA_OF_ASC_NODE":"165.4994","CENTER_NAME":"EARTH","BSTAR":"0.00006948400000","RCS_SIZE":"LARGE","ECCENTRICITY":"0.00020270","MEAN_MOTION_DDOT":"0.0000000000000","REF_FRAME":"TEME","COUNTRY_CODE":"US","EPHEMERIS_TYPE":"0","OBJECT_NAME":"STARLINK-4099","NORAD_CAT_ID":"53146","FILE":"3669335","OBJECT_TYPE":"PAYLOAD","MEAN_MOTION":"15.08825775","PERIOD":"95.438","LAUNCH_DATE":"2022-07-17","OBJECT_ID":"2022-083Q","REV_AT_EPOCH":"1991","CLASSIFICATION_TYPE":"U","SEMIMAJOR_AXIS":"6917.924","MEAN_MOTION_DOT":"0.00000817","ARG_OF_PERICENTER":"46.9605","MEAN_ANOMALY":"313.1557","TIME_SYSTEM":"UTC","MEAN_ELEMENT_THEORY":"SGP4","ELEMENT_SET_NO":"999","TLE_LINE1":"1 53146U 22083Q   22328.71640952  .00000817  00000-0  69484-4 0  9996","PERIAPSIS":"538.387","TLE_LINE2":"2 53146  53.2183 165.4994 0002027  46.9605 313.1557 15.08825775 19915","SITE":"AFETR","APOAPSIS":"541.191","INCLINATION":"53.2183"},{"PERIAPSIS":"538.001","INCLINATION":"53.2169","APOAPSIS":"541.507","SITE":"AFETR","TLE_LINE2":"2 53147  53.2169 164.9761 0002534  44.7415 315.3781 15.08837056 20587","MEAN_ELEMENT_THEORY":"SGP4","TIME_SYSTEM":"UTC","MEAN_ANOMALY":"315.3781","ARG_OF_PERICENTER":"44.7415","TLE_LINE1":"1 53147U 22083R   22328.83048474  .00000057  00000-0  21727-4 0  9995","ELEMENT_SET_NO":"999","SEMIMAJOR_AXIS":"6917.889","CLASSIFICATION_TYPE":"U","REV_AT_EPOCH":"2058","MEAN_MOTION_DOT":"0.00000057","FILE":"3669335","OBJECT_ID":"2022-083R","LAUNCH_DATE":"2022-07-17","PERIOD":"95.438","MEAN_MOTION":"15.08837056","OBJECT_TYPE":"PAYLOAD","NORAD_CAT_ID":"53147","REF_FRAME":"TEME","MEAN_MOTION_DDOT":"0.0000000000000","ECCENTRICITY":"0.00025340","OBJECT_NAME":"STARLINK-4094","EPHEMERIS_TYPE":"0","COUNTRY_CODE":"US","EPOCH":"2022-11-24T19:55:53.881536","BSTAR":"0.00002172700000","RCS_SIZE":"LARGE","CENTER_NAME":"EARTH","RA_OF_ASC_NODE":"164.9761","DECAY_DATE":null,"GP_ID":"218725963"},{"OBJECT_NAME":"STARLINK-4066","EPHEMERIS_TYPE":"0","COUNTRY_CODE":"US","MEAN_MOTION_DDOT":"0.0000000000000","REF_FRAME":"TEME","ECCENTRICITY":"0.00025640","NORAD_CAT_ID":"53148","DECAY_DATE":null,"GP_ID":"218726842","RCS_SIZE":"LARGE","BSTAR":"-0.00004828300000","CENTER_NAME":"EARTH","RA_OF_ASC_NODE":"165.5441","EPOCH":"2022-11-24T16:55:43.946400","TLE_LINE1":"1 53148U 22083S   22328.70536975 -.00001057  00000-0 -48283-4 0  9999","ELEMENT_SET_NO":"999","MEAN_ELEMENT_THEORY":"SGP4","TIME_SYSTEM":"UTC","MEAN_ANOMALY":"322.8933","ARG_OF_PERICENTER":"37.2237","INCLINATION":"53.2192","APOAPSIS":"541.551","SITE":"AFETR","TLE_LINE2":"2 53148  53.2192 165.5441 0002564  37.2237 322.8933 15.08829536 19919","PERIAPSIS":"538.004","LAUNCH_DATE":"2022-07-17","OBJECT_ID":"2022-083S","MEAN_MOTION":"15.08829536","PERIOD":"95.438","OBJECT_TYPE":"PAYLOAD","FILE":"3669335","MEAN_MOTION_DOT":"-0.00001057","SEMIMAJOR_AXIS":"6917.912","CLASSIFICATION_TYPE":"U","REV_AT_EPOCH":"1991"}];
